[
  {
    "OBJECT_NAME": "STARLINK-5913",
    "OBJECT_ID": "23037Z",
    "EPOCH": "2025-11-11T03:42:19.886112",
    "MEAN_MOTION": 14.98333791,
    "ECCENTRICITY": 0.0002716,
    "INCLINATION": 70.0004,
    "RA_OF_ASC_NODE": 223.3673,
    "ARG_OF_PERICENTER": 274.8084,
    "MEAN_ANOMALY": 85.2765,
    "EPHEMERIS_TYPE": 0,
    "CLASSIFICATION_TYPE": "U",
    "NORAD_CAT_ID": 55937,
    "ELEMENT_SET_NO": 999,
    "REV_AT_EPOCH": 14622,
    "BSTAR": 0.00011866,
    "MEAN_MOTION_DOT": 1.323e-05,
    "MEAN_MOTION_DDOT": 0.0,
    "TLE_LINE1": "1 55937U 23037Z   25315.15439683  .00001323  00000+0  11866-3 0  9992",
    "TLE_LINE2": "2 55937  70.0004 223.3673 0002716 274.8084  85.2765 14.98333791146223",
    "COMMENT": "Grouped by shell and plane from TLE"
  },
  {
    "OBJECT_NAME": "STARLINK-5909",
    "OBJECT_ID": "23037AA",
    "EPOCH": "2025-11-11T03:36:22.412160",
    "MEAN_MOTION": 14.98288645,
    "ECCENTRICITY": 0.0002588,
    "INCLINATION": 70.0031,
    "RA_OF_ASC_NODE": 223.3531,
    "ARG_OF_PERICENTER": 258.8684,
    "MEAN_ANOMALY": 101.2184,
    "EPHEMERIS_TYPE": 0,
    "CLASSIFICATION_TYPE": "U",
    "NORAD_CAT_ID": 55938,
    "ELEMENT_SET_NO": 999,
    "REV_AT_EPOCH": 14622,
    "BSTAR": 0.0,
    "MEAN_MOTION_DOT": -4.478e-05,
    "MEAN_MOTION_DDOT": 0.0,
    "TLE_LINE1": "1 55938U 23037AA  25315.15025940 -.00004478  00000+0 -36815-3 0  9997",
    "TLE_LINE2": "2 55938  70.0031 223.3531 0002588 258.8684 101.2184 14.98288645146223",
    "COMMENT": "Grouped by shell and plane from TLE"
  },
  {
    "OBJECT_NAME": "STARLINK-5918",
    "OBJECT_ID": "23037AB",
    "EPOCH": "2025-11-11T03:24:17.593920",
    "MEAN_MOTION": 14.98328511,
    "ECCENTRICITY": 0.0002947,
    "INCLINATION": 70.0,
    "RA_OF_ASC_NODE": 223.3235,
    "ARG_OF_PERICENTER": 272.6117,
    "MEAN_ANOMALY": 87.4705,
    "EPHEMERIS_TYPE": 0,
    "CLASSIFICATION_TYPE": "U",
    "NORAD_CAT_ID": 55939,
    "ELEMENT_SET_NO": 999,
    "REV_AT_EPOCH": 14622,
    "BSTAR": 0.00028069,
    "MEAN_MOTION_DOT": 3.258e-05,
    "MEAN_MOTION_DDOT": 0.0,
    "TLE_LINE1": "1 55939U 23037AB  25315.14187030  .00003258  00000+0  28069-3 0  9991",
    "TLE_LINE2": "2 55939  70.0000 223.3235 0002947 272.6117  87.4705 14.98328511146226",
    "COMMENT": "Grouped by shell and plane from TLE"
  },
  {
    "OBJECT_NAME": "STARLINK-5864",
    "OBJECT_ID": "23037AC",
    "EPOCH": "2025-11-11T03:30:17.757504",
    "MEAN_MOTION": 14.98350966,
    "ECCENTRICITY": 0.0002694,
    "INCLINATION": 70.0,
    "RA_OF_ASC_NODE": 223.3378,
    "ARG_OF_PERICENTER": 270.136,
    "MEAN_ANOMALY": 89.949,
    "EPHEMERIS_TYPE": 0,
    "CLASSIFICATION_TYPE": "U",
    "NORAD_CAT_ID": 55940,
    "ELEMENT_SET_NO": 999,
    "REV_AT_EPOCH": 14622,
    "BSTAR": 8.7948e-05,
    "MEAN_MOTION_DOT": 9.57e-06,
    "MEAN_MOTION_DDOT": 0.0,
    "TLE_LINE1": "1 55940U 23037AC  25315.14603886  .00000957  00000+0  87948-4 0  9990",
    "TLE_LINE2": "2 55940  70.0000 223.3378 0002694 270.1360  89.9490 14.98350966146225",
    "COMMENT": "Grouped by shell and plane from TLE"
  },
  {
    "OBJECT_NAME": "STARLINK-5914",
    "OBJECT_ID": "23037AD",
    "EPOCH": "2025-11-11T02:30:13.993632",
    "MEAN_MOTION": 14.98341115,
    "ECCENTRICITY": 0.0002623,
    "INCLINATION": 69.9999,
    "RA_OF_ASC_NODE": 223.5952,
    "ARG_OF_PERICENTER": 268.5403,
    "MEAN_ANOMALY": 91.5455,
    "EPHEMERIS_TYPE": 0,
    "CLASSIFICATION_TYPE": "U",
    "NORAD_CAT_ID": 55941,
    "ELEMENT_SET_NO": 999,
    "REV_AT_EPOCH": 14621,
    "BSTAR": 0.00019678000000000002,
    "MEAN_MOTION_DOT": 2.256e-05,
    "MEAN_MOTION_DDOT": 0.0,
    "TLE_LINE1": "1 55941U 23037AD  25315.10432863  .00002256  00000+0  19678-3 0  9990",
    "TLE_LINE2": "2 55941  69.9999 223.5952 0002623 268.5403  91.5455 14.98341115146216",
    "COMMENT": "Grouped by shell and plane from TLE"
  },
  {
    "OBJECT_NAME": "STARLINK-5917",
    "OBJECT_ID": "23037AE",
    "EPOCH": "2025-11-11T04:30:22.457088",
    "MEAN_MOTION": 14.98338082,
    "ECCENTRICITY": 0.0002662,
    "INCLINATION": 70.0005,
    "RA_OF_ASC_NODE": 223.0801,
    "ARG_OF_PERICENTER": 277.6403,
    "MEAN_ANOMALY": 82.4454,
    "EPHEMERIS_TYPE": 0,
    "CLASSIFICATION_TYPE": "U",
    "NORAD_CAT_ID": 55942,
    "ELEMENT_SET_NO": 999,
    "REV_AT_EPOCH": 14623,
    "BSTAR": 0.00022025000000000001,
    "MEAN_MOTION_DOT": 2.537e-05,
    "MEAN_MOTION_DDOT": 0.0,
    "TLE_LINE1": "1 55942U 23037AE  25315.18775992  .00002537  00000+0  22025-3 0  9994",
    "TLE_LINE2": "2 55942  70.0005 223.0801 0002662 277.6403  82.4454 14.98338082146239",
    "COMMENT": "Grouped by shell and plane from TLE"
  },
  {
    "OBJECT_NAME": "STARLINK-5932",
    "OBJECT_ID": "23037AF",
    "EPOCH": "2025-11-11T03:06:16.425792",
    "MEAN_MOTION": 14.98328372,
    "ECCENTRICITY": 0.0002532,
    "INCLINATION": 70.0015,
    "RA_OF_ASC_NODE": 223.2697,
    "ARG_OF_PERICENTER": 299.8754,
    "MEAN_ANOMALY": 60.2153,
    "EPHEMERIS_TYPE": 0,
    "CLASSIFICATION_TYPE": "U",
    "NORAD_CAT_ID": 55943,
    "ELEMENT_SET_NO": 999,
    "REV_AT_EPOCH": 14622,
    "BSTAR": 0.00018976000000000003,
    "MEAN_MOTION_DOT": 2.172e-05,
    "MEAN_MOTION_DDOT": 0.0,
    "TLE_LINE1": "1 55943U 23037AF  25315.12935678  .00002172  00000+0  18976-3 0  9993",
    "TLE_LINE2": "2 55943  70.0015 223.2697 0002532 299.8754  60.2153 14.98328372146227",
    "COMMENT": "Grouped by shell and plane from TLE"
  },
  {
    "OBJECT_NAME": "STARLINK-5926",
    "OBJECT_ID": "23037AG",
    "EPOCH": "2025-11-11T04:36:23.228928",
    "MEAN_MOTION": 14.98335859,
    "ECCENTRICITY": 0.0002383,
    "INCLINATION": 70.0009,
    "RA_OF_ASC_NODE": 223.0949,
    "ARG_OF_PERICENTER": 287.9713,
    "MEAN_ANOMALY": 72.1187,
    "EPHEMERIS_TYPE": 0,
    "CLASSIFICATION_TYPE": "U",
    "NORAD_CAT_ID": 55944,
    "ELEMENT_SET_NO": 999,
    "REV_AT_EPOCH": 14623,
    "BSTAR": 0.00017458000000000003,
    "MEAN_MOTION_DOT": 1.991e-05,
    "MEAN_MOTION_DDOT": 0.0,
    "TLE_LINE1": "1 55944U 23037AG  25315.19193552  .00001991  00000+0  17458-3 0  9990",
    "TLE_LINE2": "2 55944  70.0009 223.0949 0002383 287.9713  72.1187 14.98335859146234",
    "COMMENT": "Grouped by shell and plane from TLE"
  },
  {
    "OBJECT_NAME": "STARLINK-5925",
    "OBJECT_ID": "23037AH",
    "EPOCH": "2025-11-11T03:12:30.566304",
    "MEAN_MOTION": 14.98370015,
    "ECCENTRICITY": 0.000264,
    "INCLINATION": 70.0018,
    "RA_OF_ASC_NODE": 223.2952,
    "ARG_OF_PERICENTER": 260.234,
    "MEAN_ANOMALY": 99.8521,
    "EPHEMERIS_TYPE": 0,
    "CLASSIFICATION_TYPE": "U",
    "NORAD_CAT_ID": 55945,
    "ELEMENT_SET_NO": 999,
    "REV_AT_EPOCH": 14622,
    "BSTAR": 0.0,
    "MEAN_MOTION_DOT": -6.337e-05,
    "MEAN_MOTION_DDOT": 0.0,
    "TLE_LINE1": "1 55945U 23037AH  25315.13368711 -.00006337  00000+0 -52328-3 0  9992",
    "TLE_LINE2": "2 55945  70.0018 223.2952 0002640 260.2340  99.8521 14.98370015146227",
    "COMMENT": "Grouped by shell and plane from TLE"
  },
  {
    "OBJECT_NAME": "STARLINK-5857",
    "OBJECT_ID": "23037AJ",
    "EPOCH": "2025-11-11T03:12:17.844768",
    "MEAN_MOTION": 14.98323342,
    "ECCENTRICITY": 0.0002154,
    "INCLINATION": 70.0004,
    "RA_OF_ASC_NODE": 223.2968,
    "ARG_OF_PERICENTER": 273.8427,
    "MEAN_ANOMALY": 86.2486,
    "EPHEMERIS_TYPE": 0,
    "CLASSIFICATION_TYPE": "U",
    "NORAD_CAT_ID": 55946,
    "ELEMENT_SET_NO": 999,
    "REV_AT_EPOCH": 14621,
    "BSTAR": 0.0,
    "MEAN_MOTION_DOT": -2.758e-05,
    "MEAN_MOTION_DDOT": 0.0,
    "TLE_LINE1": "1 55946U 23037AJ  25315.13353987 -.00002758  00000+0 -22347-3 0  9993",
    "TLE_LINE2": "2 55946  70.0004 223.2968 0002154 273.8427  86.2486 14.98323342146216",
    "COMMENT": "Grouped by shell and plane from TLE"
  },
  {
    "OBJECT_NAME": "STARLINK-5851",
    "OBJECT_ID": "23037AK",
    "EPOCH": "2025-11-11T04:24:34.830144",
    "MEAN_MOTION": 14.98349199,
    "ECCENTRICITY": 0.0002124,
    "INCLINATION": 70.0017,
    "RA_OF_ASC_NODE": 223.0683,
    "ARG_OF_PERICENTER": 284.9433,
    "MEAN_ANOMALY": 75.1491,
    "EPHEMERIS_TYPE": 0,
    "CLASSIFICATION_TYPE": "U",
    "NORAD_CAT_ID": 55947,
    "ELEMENT_SET_NO": 999,
    "REV_AT_EPOCH": 14623,
    "BSTAR": 0.00036427,
    "MEAN_MOTION_DOT": 4.258e-05,
    "MEAN_MOTION_DDOT": 0.0,
    "TLE_LINE1": "1 55947U 23037AK  25315.18373646  .00004258  00000+0  36427-3 0  9992",
    "TLE_LINE2": "2 55947  70.0017 223.0683 0002124 284.9433  75.1491 14.98349199146233",
    "COMMENT": "Grouped by shell and plane from TLE"
  },
  {
    "OBJECT_NAME": "STARLINK-5908",
    "OBJECT_ID": "23037AP",
    "EPOCH": "2025-11-11T04:24:22.057632",
    "MEAN_MOTION": 14.98347872,
    "ECCENTRICITY": 0.0001991,
    "INCLINATION": 70.0003,
    "RA_OF_ASC_NODE": 223.0656,
    "ARG_OF_PERICENTER": 264.7316,
    "MEAN_ANOMALY": 95.3616,
    "EPHEMERIS_TYPE": 0,
    "CLASSIFICATION_TYPE": "U",
    "NORAD_CAT_ID": 55951,
    "ELEMENT_SET_NO": 999,
    "REV_AT_EPOCH": 14623,
    "BSTAR": 5.1824000000000004e-05,
    "MEAN_MOTION_DOT": 5.26e-06,
    "MEAN_MOTION_DDOT": 0.0,
    "TLE_LINE1": "1 55951U 23037AP  25315.18358863  .00000526  00000+0  51824-4 0  9994",
    "TLE_LINE2": "2 55951  70.0003 223.0656 0001991 264.7316  95.3616 14.98347872146239",
    "COMMENT": "Grouped by shell and plane from TLE"
  },
  {
    "OBJECT_NAME": "STARLINK-30476",
    "OBJECT_ID": "23147T",
    "EPOCH": "2025-11-11T03:30:11.225664",
    "MEAN_MOTION": 15.18906404,
    "ECCENTRICITY": 0.0015214,
    "INCLINATION": 42.9958,
    "RA_OF_ASC_NODE": 221.8141,
    "ARG_OF_PERICENTER": 174.0582,
    "MEAN_ANOMALY": 186.045,
    "EPHEMERIS_TYPE": 0,
    "CLASSIFICATION_TYPE": "U",
    "NORAD_CAT_ID": 57930,
    "ELEMENT_SET_NO": 999,
    "REV_AT_EPOCH": 11908,
    "BSTAR": 0.0021664,
    "MEAN_MOTION_DOT": 0.00046252,
    "MEAN_MOTION_DDOT": 0.0,
    "TLE_LINE1": "1 57930U 23147T   25315.14596326  .00046252  00000+0  21664-2 0  9992",
    "TLE_LINE2": "2 57930  42.9958 221.8141 0015214 174.0582 186.0450 15.18906404119083",
    "COMMENT": "Grouped by shell and plane from TLE"
  }
]